STARLINK-38047          
1 69745U 26150G   26195.50921554  .00139688  00000+0  71675-3 0  9992
2 69745  97.2820  33.8437 0003666 125.3440 234.8171 15.80859566  3214
STARLINK-38046          
1 69746U 26150H   26195.50727908  .00265878  00000+0  13381-2 0  9990
2 69746  97.2828  33.8477 0002024 120.7577 239.3891 15.80959775  3216
STARLINK-38067          
1 69747U 26150J   26195.58335648 -.00105649  00000+0 -71505-3 0  9999
2 69747  97.2828  33.8995 0001310  73.4596 288.8110 15.75228029  3201
STARLINK-37988          
1 69748U 26150K   26195.58335648 -.00112499  00000+0 -76207-3 0  9995
2 69748  97.2827  33.9030 0001327  89.4494 282.8235 15.75228133  3202
STARLINK-37987          
1 69749U 26150L   26195.58335648 -.00111398  00000+0 -75473-3 0  9997
2 69749  97.2829  33.9142 0001234  79.3910 316.8848 15.75221441  3200
STARLINK-38037          
1 69750U 26150M   26195.50271548  .00243905  00000+0  12318-2 0  9995
2 69750  97.2817  33.8530 0001384 110.0022 250.1396 15.80940954  3214
STARLINK-38049          
1 69751U 26150N   26195.50169637  .00178269  00000+0  90865-3 0  9995
2 69751  97.2828  33.8556 0001058 118.3525 241.7850 15.80909708  3215
STARLINK-38029          
1 69752U 26150P   26195.56055398 -.00781624  00000+0 -52756-2 0  9993
2 69752  97.2837  33.9285 0001116  18.1288 342.0018 15.77096114  3220
STARLINK-37965          
1 69753U 26150Q   26195.58335648 -.00111590  00000+0 -75550-3 0  9992
2 69753  97.2833  33.9383 0001528  87.0129   5.2410 15.75237217  3203
STARLINK-38048          
1 69754U 26150R   26195.49557378  .00144656  00000+0  74110-3 0  9997
2 69754  97.2825  33.8638 0000933 111.6112 248.5256 15.80886716  3213
STARLINK-38006          
1 69755U 26150S   26195.58335648 -.00383989  00000+0 -26773-2 0  9999
2 69755  97.2836  33.9615 0000501 100.1153  44.1094 15.75309488  3200
STARLINK-38036          
1 69756U 26150T   26195.55478257  .00041747  00000+0  21718-3 0  9997
2 69756  97.2839  33.9373 0001546  85.1977 274.9468 15.80862187  3227
STARLINK-38058          
1 69757U 26150U   26195.55435324  .04474732  00000+0  17500-1 0  9996
2 69757  97.2841  33.9379 0007805 225.7969 134.2660 15.82907203  3227
STARLINK-38066          
1 69758U 26150V   26195.49107688  .00138671  00000+0  71080-3 0  9999
2 69758  97.2834  33.8708 0001290  96.5352 263.6064 15.80891489  3217
STARLINK-38035          
1 69759U 26150W   26195.55425596  .00043702  00000+0  22737-3 0  9993
2 69759  97.2840  33.9378 0001217  86.0503 274.0904 15.80852722  3227
STARLINK-38056          
1 69760U 26150X   26195.55080023 -.00045102  00000+0 -23606-3 0  9991
2 69760  97.2844  33.9430 0001272  57.3560 302.7831 15.80804655  3227
STARLINK-38069          
1 69761U 26150Y   26195.58335648 -.00075069  00000+0 -39401-3 0  9996
2 69761  97.2843  33.9876 0001570  88.4956 116.4680 15.80844673  3200
STARLINK-38019          
1 69762U 26150Z   26195.58335648 -.00145602  00000+0 -98997-3 0  9993
2 69762  97.2835  33.9630 0000851  68.4735  79.7858 15.75238752  3201
KUIPER-00258            
1 69763U 26151A   26195.42087530  .00006068  00000+0  18450-3 0  9998
2 69763  51.8668 184.2903 0011553 165.5702 194.5616 15.35381914  1895
KUIPER-00526            
1 69764U 26151B   26195.53698333  .00008521  00000+0  23971-3 0  9990
2 69764  51.8751 183.5752 0006139 137.3970 222.7494 15.37307465  1913
KUIPER-00558            
1 69765U 26151C   26195.54080130  .00013765  00000+0  38645-3 0  9992
2 69765  51.8752 183.5982 0007905 149.8007 210.3437 15.36809731  1913
KUIPER-00569            
1 69766U 26151D   26195.53555059  .00010329  00000+0  28692-3 0  9993
2 69766  51.8773 183.5652 0005012 132.2423 227.8990 15.37458831  1915
KUIPER-00589            
1 69767U 26151E   26195.60122591  .00010591  00000+0  29440-3 0  9996
2 69767  51.8744 183.2562 0005431 141.0461 219.0917 15.37403566  1924
KUIPER-00598            
1 69768U 26151F   26195.35511047  .00000866  00000+0  36218-4 0  9993
2 69768  51.8651 184.5955 0010658 164.6267 195.5044 15.35071113  1885
KUIPER-00604            
1 69769U 26151G   26195.52965853  .00011804  00000+0  31839-3 0  9998
2 69769  51.8787 183.5229 0002728 107.3256 252.8030 15.38226903  1918
KUIPER-00609            
1 69770U 26151H   26195.59128077  .00007434  00000+0  20188-3 0  9995
2 69770  51.8789 183.1867 0001109  51.0594 309.0493 15.38621602  1922
KUIPER-00611            
1 69771U 26151J   26195.52796535  .00012122  00000+0  32448-3 0  9991
2 69771  51.8792 183.5082 0001655 103.5649 256.5523 15.38436681  1910
KUIPER-00612            
1 69772U 26151K   26195.53202097  .00012457  00000+0  33866-3 0  9994
2 69772  51.8783 183.5406 0003656 113.8275 246.3096 15.37925897  1916
KUIPER-00614            
1 69773U 26151L   26195.59531423  .00012511  00000+0  33773-3 0  9997
2 69773  51.8795 183.2124 0002734 116.9118 243.2149 15.38143073  1925
KUIPER-00615            
1 69774U 26151M   26195.34266607  .00010426  00000+0  29169-3 0  9997
2 69774  51.8764 184.5217 0006084 144.0556 216.0841 15.37218119  1884
